<?xml version="1.0" encoding="UTF-8"?>
<gpx version="1.1" creator="MarchMap" xmlns="http://www.topografix.com/GPX/1/1">
  <trk><name>Берлин — пример с разрывом</name>
    <trkseg>
      <trkpt lat="52.5145" lon="13.3500"><ele>35</ele></trkpt>
      <trkpt lat="52.5145" lon="13.3550"><ele>42</ele></trkpt>
      <trkpt lat="52.5150" lon="13.3600"><ele>38</ele></trkpt>
      <trkpt lat="52.5160" lon="13.3650"><ele>50</ele></trkpt>
    </trkseg>
    <trkseg>
      <trkpt lat="52.5165" lon="13.3750"><ele>45</ele></trkpt>
      <trkpt lat="52.5165" lon="13.3780"/>
      <trkpt lat="52.5170" lon="13.3820"><ele>32</ele></trkpt>
      <trkpt lat="52.5180" lon="13.3860"><ele>40</ele></trkpt>
    </trkseg>
  </trk>
</gpx>
