<?xml version="1.0" encoding="UTF-8"?>
<gpx version="1.1" creator="MarchMap synthetic test"><trk><name>Climb detection demo (synthetic)</name><trkseg>
<trkpt lat="0" lon="0.000000000"><ele>0.000</ele></trkpt>
<trkpt lat="0" lon="0.000224830"><ele>1.500</ele></trkpt>
<trkpt lat="0" lon="0.000449660"><ele>3.000</ele></trkpt>
<trkpt lat="0" lon="0.000674490"><ele>4.500</ele></trkpt>
<trkpt lat="0" lon="0.000899320"><ele>6.000</ele></trkpt>
<trkpt lat="0" lon="0.001124150"><ele>7.500</ele></trkpt>
<trkpt lat="0" lon="0.001348981"><ele>9.000</ele></trkpt>
<trkpt lat="0" lon="0.001573811"><ele>10.500</ele></trkpt>
<trkpt lat="0" lon="0.001798641"><ele>12.000</ele></trkpt>
<trkpt lat="0" lon="0.002023471"><ele>13.500</ele></trkpt>
<trkpt lat="0" lon="0.002248301"><ele>15.000</ele></trkpt>
<trkpt lat="0" lon="0.002473131"><ele>16.500</ele></trkpt>
<trkpt lat="0" lon="0.002697961"><ele>18.000</ele></trkpt>
<trkpt lat="0" lon="0.002922791"><ele>19.500</ele></trkpt>
<trkpt lat="0" lon="0.003147621"><ele>21.000</ele></trkpt>
<trkpt lat="0" lon="0.003372451"><ele>22.500</ele></trkpt>
<trkpt lat="0" lon="0.003597281"><ele>24.000</ele></trkpt>
<trkpt lat="0" lon="0.003822112"><ele>25.500</ele></trkpt>
<trkpt lat="0" lon="0.004046942"><ele>27.000</ele></trkpt>
<trkpt lat="0" lon="0.004271772"><ele>28.500</ele></trkpt>
<trkpt lat="0" lon="0.004496602"><ele>30.000</ele></trkpt>
<trkpt lat="0" lon="0.004721432"><ele>31.500</ele></trkpt>
<trkpt lat="0" lon="0.004946262"><ele>33.000</ele></trkpt>
<trkpt lat="0" lon="0.005171092"><ele>34.500</ele></trkpt>
<trkpt lat="0" lon="0.005395922"><ele>36.000</ele></trkpt>
<trkpt lat="0" lon="0.005620752"><ele>37.500</ele></trkpt>
<trkpt lat="0" lon="0.005845582"><ele>39.000</ele></trkpt>
<trkpt lat="0" lon="0.006070412"><ele>40.500</ele></trkpt>
<trkpt lat="0" lon="0.006295243"><ele>42.000</ele></trkpt>
<trkpt lat="0" lon="0.006520073"><ele>43.500</ele></trkpt>
<trkpt lat="0" lon="0.006744903"><ele>45.000</ele></trkpt>
<trkpt lat="0" lon="0.006969733"><ele>46.500</ele></trkpt>
<trkpt lat="0" lon="0.007194563"><ele>48.000</ele></trkpt>
<trkpt lat="0" lon="0.007419393"><ele>45.000</ele></trkpt>
<trkpt lat="0" lon="0.007644223"><ele>42.000</ele></trkpt>
<trkpt lat="0" lon="0.007869053"><ele>39.000</ele></trkpt>
<trkpt lat="0" lon="0.008093883"><ele>36.000</ele></trkpt>
<trkpt lat="0" lon="0.008318713"><ele>33.000</ele></trkpt>
<trkpt lat="0" lon="0.008543543"><ele>30.000</ele></trkpt>
<trkpt lat="0" lon="0.008768374"><ele>27.000</ele></trkpt>
<trkpt lat="0" lon="0.008993204"><ele>24.000</ele></trkpt>
<trkpt lat="0" lon="0.009218034"><ele>21.000</ele></trkpt>
<trkpt lat="0" lon="0.009442864"><ele>18.000</ele></trkpt>
<trkpt lat="0" lon="0.009667694"><ele>15.000</ele></trkpt>
<trkpt lat="0" lon="0.009892524"><ele>12.000</ele></trkpt>
<trkpt lat="0" lon="0.010117354"><ele>9.000</ele></trkpt>
<trkpt lat="0" lon="0.010342184"><ele>6.000</ele></trkpt>
<trkpt lat="0" lon="0.010567014"><ele>3.000</ele></trkpt>
<trkpt lat="0" lon="0.010791844"><ele>0.000</ele></trkpt>
<trkpt lat="0" lon="0.011016674"><ele>2.000</ele></trkpt>
<trkpt lat="0" lon="0.011241505"><ele>4.000</ele></trkpt>
<trkpt lat="0" lon="0.011466335"><ele>6.000</ele></trkpt>
<trkpt lat="0" lon="0.011691165"><ele>8.000</ele></trkpt>
<trkpt lat="0" lon="0.011915995"><ele>10.000</ele></trkpt>
<trkpt lat="0" lon="0.012140825"><ele>12.000</ele></trkpt>
<trkpt lat="0" lon="0.012365655"><ele>14.000</ele></trkpt>
<trkpt lat="0" lon="0.012590485"><ele>16.000</ele></trkpt>
<trkpt lat="0" lon="0.012815315"><ele>18.000</ele></trkpt>
<trkpt lat="0" lon="0.013040145"><ele>20.000</ele></trkpt>
<trkpt lat="0" lon="0.013264975"><ele>22.000</ele></trkpt>
<trkpt lat="0" lon="0.013489805"><ele>24.000</ele></trkpt>
<trkpt lat="0" lon="0.013714636"><ele>26.000</ele></trkpt>
<trkpt lat="0" lon="0.013939466"><ele>28.000</ele></trkpt>
<trkpt lat="0" lon="0.014164296"><ele>30.000</ele></trkpt>
<trkpt lat="0" lon="0.014389126"><ele>32.000</ele></trkpt>
<trkpt lat="0" lon="0.014613956"><ele>34.000</ele></trkpt>
<trkpt lat="0" lon="0.014838786"><ele>36.000</ele></trkpt>
<trkpt lat="0" lon="0.015063616"><ele>38.000</ele></trkpt>
<trkpt lat="0" lon="0.015288446"><ele>40.000</ele></trkpt>
<trkpt lat="0" lon="0.015513276"><ele>42.000</ele></trkpt>
<trkpt lat="0" lon="0.015738106"><ele>44.000</ele></trkpt>
<trkpt lat="0" lon="0.015962936"><ele>46.000</ele></trkpt>
<trkpt lat="0" lon="0.016187767"><ele>48.000</ele></trkpt>
<trkpt lat="0" lon="0.016412597"><ele>50.000</ele></trkpt>
<trkpt lat="0" lon="0.016637427"><ele>52.000</ele></trkpt>
<trkpt lat="0" lon="0.016862257"><ele>54.000</ele></trkpt>
<trkpt lat="0" lon="0.017087087"><ele>56.000</ele></trkpt>
<trkpt lat="0" lon="0.017311917"><ele>58.000</ele></trkpt>
<trkpt lat="0" lon="0.017536747"><ele>60.000</ele></trkpt>
<trkpt lat="0" lon="0.017761577"><ele>62.000</ele></trkpt>
<trkpt lat="0" lon="0.017986407"><ele>64.000</ele></trkpt>
<trkpt lat="0" lon="0.018211237"><ele>66.000</ele></trkpt>
<trkpt lat="0" lon="0.018436067"><ele>68.000</ele></trkpt>
<trkpt lat="0" lon="0.018660898"><ele>70.000</ele></trkpt>
<trkpt lat="0" lon="0.018885728"><ele>72.000</ele></trkpt>
<trkpt lat="0" lon="0.019110558"><ele>74.000</ele></trkpt>
<trkpt lat="0" lon="0.019335388"><ele>76.000</ele></trkpt>
<trkpt lat="0" lon="0.019560218"><ele>78.000</ele></trkpt>
<trkpt lat="0" lon="0.019785048"><ele>80.000</ele></trkpt>
<trkpt lat="0" lon="0.020009878"><ele>75.000</ele></trkpt>
<trkpt lat="0" lon="0.020234708"><ele>70.000</ele></trkpt>
<trkpt lat="0" lon="0.020459538"><ele>65.000</ele></trkpt>
<trkpt lat="0" lon="0.020684368"><ele>60.000</ele></trkpt>
<trkpt lat="0" lon="0.020909198"><ele>55.000</ele></trkpt>
<trkpt lat="0" lon="0.021134029"><ele>50.000</ele></trkpt>
<trkpt lat="0" lon="0.021358859"><ele>45.000</ele></trkpt>
<trkpt lat="0" lon="0.021583689"><ele>40.000</ele></trkpt>
<trkpt lat="0" lon="0.021808519"><ele>35.000</ele></trkpt>
<trkpt lat="0" lon="0.022033349"><ele>30.000</ele></trkpt>
<trkpt lat="0" lon="0.022258179"><ele>25.000</ele></trkpt>
<trkpt lat="0" lon="0.022483009"><ele>20.000</ele></trkpt>
<trkpt lat="0" lon="0.022707839"><ele>15.000</ele></trkpt>
<trkpt lat="0" lon="0.022932669"><ele>10.000</ele></trkpt>
<trkpt lat="0" lon="0.023157499"><ele>5.000</ele></trkpt>
<trkpt lat="0" lon="0.023382329"><ele>0.000</ele></trkpt>
<trkpt lat="0" lon="0.023607160"><ele>2.000</ele></trkpt>
<trkpt lat="0" lon="0.023831990"><ele>4.000</ele></trkpt>
<trkpt lat="0" lon="0.024056820"><ele>6.000</ele></trkpt>
<trkpt lat="0" lon="0.024281650"><ele>8.000</ele></trkpt>
<trkpt lat="0" lon="0.024506480"><ele>10.000</ele></trkpt>
<trkpt lat="0" lon="0.024731310"><ele>12.000</ele></trkpt>
<trkpt lat="0" lon="0.024956140"><ele>14.000</ele></trkpt>
<trkpt lat="0" lon="0.025180970"><ele>16.000</ele></trkpt>
<trkpt lat="0" lon="0.025405800"><ele>18.000</ele></trkpt>
<trkpt lat="0" lon="0.025630630"><ele>20.000</ele></trkpt>
<trkpt lat="0" lon="0.025855460"><ele>22.000</ele></trkpt>
<trkpt lat="0" lon="0.026080291"><ele>24.000</ele></trkpt>
<trkpt lat="0" lon="0.026305121"><ele>26.000</ele></trkpt>
<trkpt lat="0" lon="0.026529951"><ele>28.000</ele></trkpt>
<trkpt lat="0" lon="0.026754781"><ele>30.000</ele></trkpt>
<trkpt lat="0" lon="0.026979611"><ele>32.000</ele></trkpt>
<trkpt lat="0" lon="0.027204441"><ele>34.000</ele></trkpt>
<trkpt lat="0" lon="0.027429271"><ele>36.000</ele></trkpt>
<trkpt lat="0" lon="0.027654101"><ele>38.000</ele></trkpt>
<trkpt lat="0" lon="0.027878931"><ele>40.000</ele></trkpt>
<trkpt lat="0" lon="0.028103761"><ele>42.000</ele></trkpt>
<trkpt lat="0" lon="0.028328591"><ele>44.000</ele></trkpt>
<trkpt lat="0" lon="0.028553422"><ele>46.000</ele></trkpt>
<trkpt lat="0" lon="0.028778252"><ele>48.000</ele></trkpt>
<trkpt lat="0" lon="0.029003082"><ele>50.000</ele></trkpt>
<trkpt lat="0" lon="0.029227912"><ele>52.000</ele></trkpt>
<trkpt lat="0" lon="0.029452742"><ele>54.000</ele></trkpt>
<trkpt lat="0" lon="0.029677572"><ele>56.000</ele></trkpt>
<trkpt lat="0" lon="0.029902402"><ele>58.000</ele></trkpt>
<trkpt lat="0" lon="0.030127232"><ele>60.000</ele></trkpt>
<trkpt lat="0" lon="0.030352062"><ele>62.000</ele></trkpt>
<trkpt lat="0" lon="0.030576892"><ele>64.000</ele></trkpt>
<trkpt lat="0" lon="0.030801722"><ele>66.000</ele></trkpt>
<trkpt lat="0" lon="0.031026553"><ele>68.000</ele></trkpt>
<trkpt lat="0" lon="0.031251383"><ele>70.000</ele></trkpt>
<trkpt lat="0" lon="0.031476213"><ele>72.000</ele></trkpt>
<trkpt lat="0" lon="0.031701043"><ele>74.000</ele></trkpt>
<trkpt lat="0" lon="0.031925873"><ele>76.000</ele></trkpt>
<trkpt lat="0" lon="0.032150703"><ele>78.000</ele></trkpt>
<trkpt lat="0" lon="0.032375533"><ele>80.000</ele></trkpt>
<trkpt lat="0" lon="0.032600363"><ele>82.000</ele></trkpt>
<trkpt lat="0" lon="0.032825193"><ele>84.000</ele></trkpt>
<trkpt lat="0" lon="0.033050023"><ele>86.000</ele></trkpt>
<trkpt lat="0" lon="0.033274853"><ele>88.000</ele></trkpt>
<trkpt lat="0" lon="0.033499684"><ele>90.000</ele></trkpt>
<trkpt lat="0" lon="0.033724514"><ele>92.000</ele></trkpt>
<trkpt lat="0" lon="0.033949344"><ele>94.000</ele></trkpt>
<trkpt lat="0" lon="0.034174174"><ele>96.000</ele></trkpt>
<trkpt lat="0" lon="0.034399004"><ele>98.000</ele></trkpt>
<trkpt lat="0" lon="0.034623834"><ele>100.000</ele></trkpt>
<trkpt lat="0" lon="0.034848664"><ele>102.000</ele></trkpt>
<trkpt lat="0" lon="0.035073494"><ele>104.000</ele></trkpt>
<trkpt lat="0" lon="0.035298324"><ele>106.000</ele></trkpt>
<trkpt lat="0" lon="0.035523154"><ele>108.000</ele></trkpt>
<trkpt lat="0" lon="0.035747984"><ele>110.000</ele></trkpt>
<trkpt lat="0" lon="0.035972815"><ele>112.000</ele></trkpt>
<trkpt lat="0" lon="0.036197645"><ele>114.000</ele></trkpt>
<trkpt lat="0" lon="0.036422475"><ele>116.000</ele></trkpt>
<trkpt lat="0" lon="0.036647305"><ele>118.000</ele></trkpt>
<trkpt lat="0" lon="0.036872135"><ele>120.000</ele></trkpt>
<trkpt lat="0" lon="0.037096965"><ele>122.000</ele></trkpt>
<trkpt lat="0" lon="0.037321795"><ele>124.000</ele></trkpt>
<trkpt lat="0" lon="0.037546625"><ele>126.000</ele></trkpt>
<trkpt lat="0" lon="0.037771455"><ele>128.000</ele></trkpt>
<trkpt lat="0" lon="0.037996285"><ele>130.000</ele></trkpt>
<trkpt lat="0" lon="0.038221115"><ele>132.000</ele></trkpt>
<trkpt lat="0" lon="0.038445946"><ele>134.000</ele></trkpt>
<trkpt lat="0" lon="0.038670776"><ele>136.000</ele></trkpt>
<trkpt lat="0" lon="0.038895606"><ele>138.000</ele></trkpt>
<trkpt lat="0" lon="0.039120436"><ele>140.000</ele></trkpt>
<trkpt lat="0" lon="0.039345266"><ele>142.000</ele></trkpt>
<trkpt lat="0" lon="0.039570096"><ele>144.000</ele></trkpt>
<trkpt lat="0" lon="0.039794926"><ele>146.000</ele></trkpt>
<trkpt lat="0" lon="0.040019756"><ele>148.000</ele></trkpt>
<trkpt lat="0" lon="0.040244586"><ele>150.000</ele></trkpt>
<trkpt lat="0" lon="0.040469416"><ele>152.000</ele></trkpt>
<trkpt lat="0" lon="0.040694246"><ele>154.000</ele></trkpt>
<trkpt lat="0" lon="0.040919077"><ele>156.000</ele></trkpt>
<trkpt lat="0" lon="0.041143907"><ele>158.000</ele></trkpt>
<trkpt lat="0" lon="0.041368737"><ele>160.000</ele></trkpt>
</trkseg></trk></gpx>
